LEMUR-2-ANDIS           
1 42838U 17042P   26068.55941107  .00023598  00000+0  79875-3 0  9998
2 42838  97.3659 249.7950 0009101   4.3248 355.8070 15.30557934473198
STARLINK-34056          
1 63841U 25093F   26068.38837098  .00030850  00000+0  11262-2 0  9998
2 63841  42.9951  79.8164 0000494 239.5372 120.5431 15.27569784 47705
